GLOBALSTAR M024 [-]     
1 25883U 99043A   23344.92063389 -.00000079  00000+0 -52124-3 0  9991
2 25883  51.9985 191.2254 0000213 315.0194 151.6427 11.10158624 53304
GLOBALSTAR M027 [-]     
1 25884U 99043B   23344.92518261 -.00000009  00000+0  20464-2 0  9999
2 25884  52.0208 253.4995 0020785 174.4402 185.6625 11.04366093 80001
GLOBALSTAR M054 [-]     
1 25885U 99043C   23344.68858676 -.00000084  00000+0 -33677-3 0  9995
2 25885  52.0125 114.3712 0003460 298.2128 165.5249 11.39202814 55855
GLOBALSTAR M053 [-]     
1 25886U 99043D   23345.16015205 -.00000061  00000+0  23455-3 0  9990
2 25886  52.0012  29.6046 0003499 216.1052 256.5237 11.27652428 57088
GLOBALSTAR M058 [-]     
1 25907U 99049A   23344.74201466 -.00000062  00000+0  30050-3 0  9999
2 25907  51.9911 149.6500 0001406 285.4514  74.6166 11.93171356475357
GLOBALSTAR M050 [-]     
1 25908U 99049B   23344.91670856  .00000054  00000+0  16116-2 0  9998
2 25908  51.9963 198.2695 0009487  15.0135  88.6929 12.07424642 81230
GLOBALSTAR M033 [-]     
1 25909U 99049C   23344.65353879 -.00000045  00000+0  44898-3 0  9993
2 25909  51.9906 109.1238 0011481 207.7795 152.2440 12.20260365468040
GLOBALSTAR M055 [-]     
1 25910U 99049D   23344.61681765 -.00000072  00000+0  19327-3 0  9998
2 25910  51.9992 146.9620 0007946  66.0586 294.1097 12.29392168100072
